{"type": "FeatureCollection", "features": [ {"type": "Feature", "properties": {"norad_id": 31753, "name": "FENGYUN 1C DEB", "group": "fengyun-1c-debris", "lat": -62.33620420789629, "lon": 30.088783816883534, "alt_km": 861.3591485242441, "timestamp": "2025-12-05T22:40:48.834365+00:00", "meta": {"OBJECT_NAME": "FENGYUN 1C DEB", "OBJECT_ID": "1999-025CFC", "EPOCH": "2025-12-04T13:51:22.468032", "MEAN_MOTION": 14.18618704, "ECCENTRICITY": 0.0158713, "INCLINATION": 98.6331, "RA_OF_ASC_NODE": 11.9101, "ARG_OF_PERICENTER": 197.2848, "MEAN_ANOMALY": 316.6014, "EPHEMERIS_TYPE": 0, "CLASSIFICATION_TYPE": "U", "NORAD_CAT_ID": 31753, "ELEMENT_SET_NO": 999, "REV_AT_EPOCH": 95903, "BSTAR": 0.00056773, "MEAN_MOTION_DOT": 1.29e-05, "MEAN_MOTION_DDOT": 0}, "tle": {"line1": "1 31753U 99025CFC 25338.57734338  .00001290  00000+0  56773-3 0  9997", "line2": "2 31753  98.6331  11.9101 0158713 197.2848 316.6014 14.18618704959035"}}, "geometry": {"type": "Point", "coordinates": [30.088783816883534, -62.33620420789629]}}, {"type": "Feature", "properties": {"norad_id": 31754, "name": "FENGYUN 1C DEB", "group": "fengyun-1c-debris", "lat": 9.551078467084986, "lon": 126.37190874000189, "alt_km": 739.9759897190615, "timestamp": "2025-12-05T22:40:48.834375+00:00", "meta": {"OBJECT_NAME": "FENGYUN 1C DEB", "OBJECT_ID": "1999-025CFD", "EPOCH": "2025-12-02T03:58:18.660864", "MEAN_MOTION": 14.42137718, "ECCENTRICITY": 0.00492209, "INCLINATION": 99.0387, "RA_OF_ASC_NODE": 300.8366, "ARG_OF_PERICENTER": 249.9575, "MEAN_ANOMALY": 109.631, "EPHEMERIS_TYPE": 0, "CLASSIFICATION_TYPE": "U", "NORAD_CAT_ID": 31754, "ELEMENT_SET_NO": 999, "REV_AT_EPOCH": 96837, "BSTAR": 0.0013252392, "MEAN_MOTION_DOT": 4.376e-05, "MEAN_MOTION_DDOT": 0}, "tle": {"line1": "1 31754U 99025CFD 25336.16549376  .00004376  00000+0  13252-2 0  9999", "line2": "2 31754  99.0387 300.8366 0049220 249.9575 109.6310 14.42137718968373"}}, "geometry": {"type": "Point", "coordinates": [126.37190874000189, 9.551078467084986]}}, {"type": "Feature", "properties": {"norad_id": 31757, "name": "FENGYUN 1C DEB", "group": "fengyun-1c-debris", "lat": -62.23620045573468, "lon": 19.25960802966666, "alt_km": 1027.0829619315864, "timestamp": "2025-12-05T22:40:48.834385+00:00", "meta": {"OBJECT_NAME": "FENGYUN 1C DEB", "OBJECT_ID": "1999-025CFG", "EPOCH": "2025-11-25T07:08:44.431872", "MEAN_MOTION": 14.07896533, "ECCENTRICITY": 0.0217941, "INCLINATION": 98.7698, "RA_OF_ASC_NODE": 351.8577, "ARG_OF_PERICENTER": 133.0933, "MEAN_ANOMALY": 228.8704, "EPHEMERIS_TYPE": 0, "CLASSIFICATION_TYPE": "U", "NORAD_CAT_ID": 31757, "ELEMENT_SET_NO": 999, "REV_AT_EPOCH": 63636, "BSTAR": 0.00027065602, "MEAN_MOTION_DOT": 5.3e-06, "MEAN_MOTION_DDOT": 0}, "tle": {"line1": "1 31757U 99025CFG 25329.29773648  .00000530  00000+0  27066-3 0  9996", "line2": "2 31757  98.7698 351.8577 0217941 133.0933 228.8704 14.07896533636365"}}, "geometry": {"type": "Point", "coordinates": [19.25960802966666, -62.23620045573468]}}, {"type": "Feature", "properties": {"norad_id": 31758, "name": "FENGYUN 1C DEB", "group": "fengyun-1c-debris", "lat": 63.14113176043779, "lon": -26.860798343390194, "alt_km": 586.1874308203987, "timestamp": "2025-12-05T22:40:48.834395+00:00", "meta": {"OBJECT_NAME": "FENGYUN 1C DEB", "OBJECT_ID": "1999-025CFH", "EPOCH": "2025-12-04T06:24:41.233824", "MEAN_MOTION": 14.41707829, "ECCENTRICITY": 0.0319063, "INCLINATION": 98.0602, "RA_OF_ASC_NODE": 347.8011, "ARG_OF_PERICENTER": 115.9584, "MEAN_ANOMALY": 247.4847, "EPHEMERIS_TYPE": 0, "CLASSIFICATION_TYPE": "U", "NORAD_CAT_ID": 31758, "ELEMENT_SET_NO": 999, "REV_AT_EPOCH": 94078, "BSTAR": 0.0039941, "MEAN_MOTION_DOT": 0.00024088, "MEAN_MOTION_DDOT": 0}, "tle": {"line1": "1 31758U 99025CFH 25338.26714391  .00024088  00000+0  39941-2 0  9992", "line2": "2 31758  98.0602 347.8011 0319063 115.9584 247.4847 14.41707829940787"}}, "geometry": {"type": "Point", "coordinates": [-26.860798343390194, 63.14113176043779]}}, {"type": "Feature", "properties": {"norad_id": 31760, "name": "FENGYUN 1C DEB", "group": "fengyun-1c-debris", "lat": -7.891624710501212, "lon": 78.48237789679537, "alt_km": 821.8906851943666, "timestamp": "2025-12-05T22:40:48.834405+00:00", "meta": {"OBJECT_NAME": "FENGYUN 1C DEB", "OBJECT_ID": "1999-025CFK", "EPOCH": "2025-12-03T05:13:55.072128", "MEAN_MOTION": 14.3011459, "ECCENTRICITY": 0.005247, "INCLINATION": 99.2549, "RA_OF_ASC_NODE": 74.2895, "ARG_OF_PERICENTER": 224.511, "MEAN_ANOMALY": 135.1849, "EPHEMERIS_TYPE": 0, "CLASSIFICATION_TYPE": "U", "NORAD_CAT_ID": 31760, "ELEMENT_SET_NO": 999, "REV_AT_EPOCH": 95996, "BSTAR": 0.0011296, "MEAN_MOTION_DOT": 2.916e-05, "MEAN_MOTION_DDOT": 0}, "tle": {"line1": "1 31760U 99025CFK 25337.21799852  .00002916  00000+0  11296-2 0  9993", "line2": "2 31760  99.2549  74.2895 0052470 224.5110 135.1849 14.30114590959962"}}, "geometry": {"type": "Point", "coordinates": [78.48237789679537, -7.891624710501212]}}, {"type": "Feature", "properties": {"norad_id": 31761, "name": "FENGYUN 1C DEB", "group": "fengyun-1c-debris", "lat": 45.08536682414052, "lon": 32.898671047149925, "alt_km": 1167.0264749357011, "timestamp": "2025-12-05T22:40:48.834415+00:00", "meta": {"OBJECT_NAME": "FENGYUN 1C DEB", "OBJECT_ID": "1999-025CFL", "EPOCH": "2025-12-03T01:33:08.897184", "MEAN_MOTION": 14.03175505, "ECCENTRICITY": 0.04737607, "INCLINATION": 98.6331, "RA_OF_ASC_NODE": 201.389, "ARG_OF_PERICENTER": 290.7398, "MEAN_ANOMALY": 64.3621, "EPHEMERIS_TYPE": 0, "CLASSIFICATION_TYPE": "U", "NORAD_CAT_ID": 31761, "ELEMENT_SET_NO": 999, "REV_AT_EPOCH": 57975, "BSTAR": 0.0028949548, "MEAN_MOTION_DOT": 0.00012331, "MEAN_MOTION_DDOT": 0}, "tle": {"line1": "1 31761U 99025CFL 25337.06468631  .00012331  00000+0  28950-2 0  9992", "line2": "2 31761  98.6331 201.3890 0473760 290.7398  64.3621 14.03175505579754"}}, "geometry": {"type": "Point", "coordinates": [32.898671047149925, 45.08536682414052]}}, {"type": "Feature", "properties": {"norad_id": 31763, "name": "FENGYUN 1C DEB", "group": "fengyun-1c-debris", "lat": 17.247433674313754, "lon": 86.61893118864617, "alt_km": 910.3529305908332, "timestamp": "2025-12-05T22:40:48.834425+00:00", "meta": {"OBJECT_NAME": "FENGYUN 1C DEB", "OBJECT_ID": "1999-025CFN", "EPOCH": "2025-12-04T13:05:49.280064", "MEAN_MOTION": 13.50298953, "ECCENTRICITY": 0.0547343, "INCLINATION": 98.5209, "RA_OF_ASC_NODE": 88.0812, "ARG_OF_PERICENTER": 90.8168, "MEAN_ANOMALY": 334.0319, "EPHEMERIS_TYPE": 0, "CLASSIFICATION_TYPE": "U", "NORAD_CAT_ID": 31763, "ELEMENT_SET_NO": 999, "REV_AT_EPOCH": 90895, "BSTAR": 0.0016207, "MEAN_MOTION_DOT": 2.625e-05, "MEAN_MOTION_DDOT": 0}, "tle": {"line1": "1 31763U 99025CFN 25338.54570926  .00002625  00000+0  16207-2 0  9996", "line2": "2 31763  98.5209  88.0812 0547343  90.8168 334.0319 13.50298953908959"}}, "geometry": {"type": "Point", "coordinates": [86.61893118864617, 17.247433674313754]}}, {"type": "Feature", "properties": {"norad_id": 31766, "name": "FENGYUN 1C DEB", "group": "fengyun-1c-debris", "lat": 70.87859635052192, "lon": -175.45224394450238, "alt_km": 917.8827988527337, "timestamp": "2025-12-05T22:40:48.834435+00:00", "meta": {"OBJECT_NAME": "FENGYUN 1C DEB", "OBJECT_ID": "1999-025CFR", "EPOCH": "2025-12-05T06:47:32.394912", "MEAN_MOTION": 14.0527316, "ECCENTRICITY": 0.0073991, "INCLINATION": 98.8156, "RA_OF_ASC_NODE": 337.3141, "ARG_OF_PERICENTER": 312.3248, "MEAN_ANOMALY": 47.1666, "EPHEMERIS_TYPE": 0, "CLASSIFICATION_TYPE": "U", "NORAD_CAT_ID": 31766, "ELEMENT_SET_NO": 999, "REV_AT_EPOCH": 63981, "BSTAR": 0.00041484031, "MEAN_MOTION_DOT": 6.44e-06, "MEAN_MOTION_DDOT": 0}, "tle": {"line1": "1 31766U 99025CFR 25339.28301383  .00000644  00000+0  41484-3 0  9995", "line2": "2 31766  98.8156 337.3141 0073991 312.3248  47.1666 14.05273160639812"}}, "geometry": {"type": "Point", "coordinates": [-175.45224394450238, 70.87859635052192]}}, {"type": "Feature", "properties": {"norad_id": 31767, "name": "FENGYUN 1C DEB", "group": "fengyun-1c-debris", "lat": 80.82070546057182, "lon": -64.16341247026124, "alt_km": 838.8825539317722, "timestamp": "2025-12-05T22:40:48.834446+00:00", "meta": {"OBJECT_NAME": "FENGYUN 1C DEB", "OBJECT_ID": "1999-025CFS", "EPOCH": "2025-12-01T14:37:35.233248", "MEAN_MOTION": 14.04944671, "ECCENTRICITY": 0.0041867, "INCLINATION": 98.8235, "RA_OF_ASC_NODE": 5.6102, "ARG_OF_PERICENTER": 100.5814, "MEAN_ANOMALY": 30.5422, "EPHEMERIS_TYPE": 0, "CLASSIFICATION_TYPE": "U", "NORAD_CAT_ID": 31767, "ELEMENT_SET_NO": 999, "REV_AT_EPOCH": 94669, "BSTAR": 0.00034816625, "MEAN_MOTION_DOT": 5.22e-06, "MEAN_MOTION_DDOT": 0}, "tle": {"line1": "1 31767U 99025CFS 25335.60943557  .00000522  00000+0  34817-3 0  9990", "line2": "2 31767  98.8235   5.6102 0041867 100.5814  30.5422 14.04944671946690"}}, "geometry": {"type": "Point", "coordinates": [-64.16341247026124, 80.82070546057182]}}, {"type": "Feature", "properties": {"norad_id": 31768, "name": "FENGYUN 1C DEB", "group": "fengyun-1c-debris", "lat": -78.64411403716178, "lon": 179.5428361368049, "alt_km": 653.3756426518366, "timestamp": "2025-12-05T22:40:48.834456+00:00", "meta": {"OBJECT_NAME": "FENGYUN 1C DEB", "OBJECT_ID": "1999-025CFT", "EPOCH": "2025-12-03T10:57:47.606400", "MEAN_MOTION": 14.75610612, "ECCENTRICITY": 0.00263536, "INCLINATION": 99.0442, "RA_OF_ASC_NODE": 49.239, "ARG_OF_PERICENTER": 11.0794, "MEAN_ANOMALY": 1.6919, "EPHEMERIS_TYPE": 0, "CLASSIFICATION_TYPE": "U", "NORAD_CAT_ID": 31768, "ELEMENT_SET_NO": 999, "REV_AT_EPOCH": 96736, "BSTAR": 0.0034312431, "MEAN_MOTION_DOT": 0.00023557, "MEAN_MOTION_DDOT": 0}, "tle": {"line1": "1 31768U 99025CFT 25337.45680100  .00023557  00000+0  34312-2 0  9990", "line2": "2 31768  99.0442  49.2390 0026353  11.0794   1.6919 14.75610612967363"}}, "geometry": {"type": "Point", "coordinates": [179.5428361368049, -78.64411403716178]}}]}